Name,Band number,Region,Address 1,Address 2,City,Province,Postal Code
Fort McKay First Nation,467,AB,PO BOX 5360,,FORT MCMURRAY,AB,T9H 3G4
Fort McMurray #468 First Nation,468,AB,"PO BOX 6130, STN MAIN",,FORT MCMURRAY,AB,T9H 4W1
Frog Lake,465,AB,GENERAL DELIVERY,,FROG LAKE,AB,T0A 1M0
Heart Lake,469,AB,PO BOX 447,,LAC LA BICHE,AB,T0A 2C0
Sturgeon Lake Cree Nation,455,AB,PO BOX 757,,VALLEYVIEW,AB,T0H 3N0
Beecher Bay,640,BC,4901B EAST SOOKE ROAD,,SOOKE,BC,V9Z 1B6
Binche Whut'en,730,BC,"204 Mandine Drive, PO Box 2039",,Fort St. James,BC,V0J 1P0
Blueberry River First Nations,547,BC,PO BOX 3009,,BUICK CREEK,BC,V0C 2R0
Bonaparte,686,BC,PO BOX 669,,CACHE CREEK,BC,V0K 1H0
Boothroyd,700,BC,PO BOX 70,,BOSTON BAR,BC,V0K 1C0
Douglas,561,BC,PO BOX 606,,MOUNT CURRIE,BC,V0N 2K0
Dzawada'enuxw First Nation,636,BC,GENERAL DELIVERY,,KINGCOME INLET,BC,V0N 2B0
Ehattesaht,634,BC,PO BOX 59,,ZEBALLOS,BC,V0P 2A0
Esk'etemc,711,BC,PO BOX 157,,ALKALI LAKE,BC,V0L 1B0
Kwikwasut'inuxw Haxwa'mis,625,BC,PO BOX 10,,ALERT BAY,BC,V0N 1A0
Kwikwetlem First Nation,560,BC,2 - 65 COLONY FARM ROAD,,COQUITLAM,BC,V3C 5X9
Lake Babine Nation,607,BC,PO BOX 879,,BURNS LAKE,BC,V0J 1E0
Lax Kw'alaams,674,BC,206 SHASHAAK STREET,,LAX KW'ALAAMS,BC,V0V 1H0
N'Quatqua,556,BC,PO BOX 88,,D'ARCY,BC,V0N 1L0
Nadleh Whuten,612,BC,PO BOX 36,,FORT FRASER,BC,V0J 1N0
Osoyoos,596,BC,1155 SEN POK CHIN BLVD,,OLIVER,BC,V0H 1T8
Pacheedaht First Nation,658,BC,"350 Kalaid Street, Box 170",,PORT RENFREW,BC,V0S 1K0
Shxw'ow'hamel First Nation,587,BC,58700A ST. ELMO ROAD,,HOPE,BC,V0X 1L2
Shxwha:y Village,570,BC,44680 SCHWEYEY ROAD,,CHILLIWACK,BC,V2R 5M5
Simpcw First Nation,691,BC,PO BOX 220,,BARRIERE,BC,V0E 1E0
Siska,706,BC,PO BOX 519,,LYTTON,BC,V0K 1Z0
Soowahlie,572,BC,4393 SOOWAHLIE ROAD,,CULTUS LAKE,BC,V2R 4Y2
Splatsin,600,BC,PO BOX 460,,ENDERBY,BC,V0E 1V0
Spuzzum,708,BC,"SITE 3,  C 11,  RR 1",,YALE,BC,V0K 2S0
Sq'ewlets,568,BC,PO BOX 76,,LAKE ERROCK,BC,V0M 1N0
Squamish,555,BC,PO BOX 86131,,NORTH VANCOUVER,BC,V7L 4J5
Squiala First Nation,574,BC,45005 SQUIALA ROAD,,CHILLIWACK,BC,V2P 7Z9
Stellat'en First Nation,613,BC,PO BOX 760,,FRASER LAKE,BC,V0J 1S0
Sts'ailes,559,BC,"4690 SALISH WAY, CHEHALIS ROAD",,AGASSIZ,BC,V0M 1A1
Stswecem'c Xgat'tem First Nation,723,BC,GENERAL DELIVERY,,DOG CREEK,BC,V0L 1J0
Ts'uubaa-asatx,643,BC,"313B DEER ROAD, PO BOX 159",,LAKE COWICHAN,BC,V0R 2G0
Tsal'alh,595,BC,SITE 3 BOX 76,,SHALALTH,BC,V0N 3C0
Tsartlip,653,BC,"PO BOX 70,  #1 Boatramp Road",,BRENTWOOD BAY,BC,V8M 1R3
Westbank First Nation,601,BC,201-515 HWY 97 SOUTH,,KELOWNA,BC,V1Z 3J2
Wet'suwet'en First Nation,725,BC,PO BOX 760,,BURNS LAKE,BC,V0J 1E0
Whispering Pines/Clinton,702,BC,615 WHISPERING PINES DRIVE,,KAMLOOPS,BC,V2B 8S4
Williams Lake First Nation,719,BC,2672 INDIAN DRIVE,,WILLIAMS LAKE,BC,V2G 5K9
Witset First Nation,530,BC,205 BEAVER ROAD,,SMITHERS,BC,V0J 2N1
Canupawakpa Dakota First Nation,289,MB,PO BOX 146,,PIPESTONE,MB,R0M 1T0
Chemawawin Cree Nation,309,MB,PO BOX 9,,EASTERVILLE,MB,R0C 0V0
Cross Lake Band of Indians,276,MB,PO BOX 10,,CROSS LAKE,MB,R0B 0J0
Dakota Plains,288,MB,PO BOX 1246,,PORTAGE LA PRAIRIE,MB,R1N 3J9
Dakota Tipi,295,MB,2020 DAKOTA DRIVE,,DAKOTA TIPI,MB,R1N 3X6
Little Grand Rapids,270,MB,PO BOX 129,,LITTLE GRAND RAPIDS,MB,R0B 0V0
Little Saskatchewan,274,MB,PO BOX 98,,GYPSUMVILLE,MB,R0C 1J0
Long Plain,287,MB,PO BOX 430,,PORTAGE LA PRAIRIE,MB,R1N 3B7
Manto Sipi Cree Nation,302,MB,PO BOX 97,,GOD'S RIVER,MB,R0B 0N0
Marcel Colomb First Nation,328,MB,PO BOX 1150,,LYNN LAKE,MB,R0B 0W0
Mathias Colomb,311,MB,PO BOX 135,,PUKATAWAGAN,MB,R0B 1G0
Misipawistik Cree Nation,310,MB,PO BOX 500,,GRAND RAPIDS,MB,R0C 1E0
Shamattawa First Nation,307,MB,PO BOX 210,,SHAMATTAWA,MB,R0B 1K0
Sioux Valley Dakota Nation,290,MB,PO BOX 38,,GRISWOLD,MB,R0M 0S0
Fort Folly,9,NB,PO BOX 1007,,DORCHESTER,NB,E4K 3V5
Indian Island,10,NB,61 INDIAN ISLAND DRIVE,,INDIAN ISLAND,NB,E4W 1S9
Kingsclear,11,NB,77 FRENCH VILLAGE RD,,KINGSCLEAR FIRST NATION,NB,E3E 1K3
Madawaska Maliseet First Nation,6,NB,1771 MAIN STREET,,MADAWASKA MALISEET FIRST NAT,NB,E7C 1W9
Metepenagiag Mi'kmaq Nation,14,NB,PO BOX 293,,METEPENAGIAG MI'KMAQ NATION,NB,E9E 2P2
Bear River,21,NS,PO BOX 210,,BEAR RIVER,NS,B0S 1B0
Eskasoni,23,NS,"PO BOX 7040, 63 MINI MALL DRIVE",,ESKASONI,NS,B1W 1A6
Glooscap First Nation,30,NS,159 SMITH ROAD,,HANTSPORT,NS,B0P 1P0
Membertou,26,NS,111 MEMBERTOU STREET,,SYDNEY,NS,B1S 2M9
Millbrook,27,NS,PO BOX 634,,TRURO,NS,B2N 5E5
Paqtnkek Mi'kmaw Nation,19,NS,"RR 1, 7 DILLAN STREET",,AFTON,NS,B0H 1A0
Pictou Landing,24,NS,"43 MAPLE STREET, RR #2 BOX 55 SITE 6",,TRENTON,NS,B0K 1X0
Potlotek First Nation,22,NS,12004 Highway 4,,CHAPEL ISLAND,NS,B0E 3B0
SIPEKNE'KATIK,25,NS,522 CHURCH STREET,,INDIAN BROOK,NS,B0N 1W0
Ka'a'gee Tu First Nation,768,NT,PO BOX 4428,,HAY RIVER,NT,X0E 1G3
Liidlii Kue First Nation,757,NT,PO BOX 469,,FORT SIMPSON,NT,X0E 0N0
Lutsel K'e Dene First Nation,764,NT,PO BOX 28,,LUTSEL K'E,NT,X0E 1A0
Nahanni Butte,766,NT,GENERAL DELIVERY,,NAHANNI BUTTE,NT,X0E 0N0
Animbiigoo Zaagi'igan Anishinaabek,194,ON,PO BOX 120,,BEARDMORE,ON,P0T 1G0
Anishinabe of Wauzhushk Onigum,153,ON,PO BOX 1850,,KENORA,ON,P9N 3X8
Anishnaabeg of Naongashiing,125,ON,PO BOX 335,,MORSON,ON,P0W 1J0
Aroland,242,ON,PO BOX 10,,AROLAND,ON,P0T 1B0
Atikameksheng Anishnawbek,224,ON,25 RESERVE ROAD,,NAUGHTON,ON,P0M 2M0
Attawapiskat,143,ON,PO BOX 248,,ATTAWAPISKAT,ON,P0L 1A0
Aundeck-Omni-Kaning,180,ON,"RR 1, COMP 21",,LITTLE CURRENT,ON,P0P 1K0
Chippewas of Rama First Nation,139,ON,200 - 5884 RAMA ROAD,,RAMA,ON,L3V 6H6
Chippewas of the Thames First Nation,166,ON,RR 1,,MUNCEY,ON,N0L 1Y0
Constance Lake,182,ON,P.O. Box 4000,,CONSTANCE LAKE,ON,P0L 1B0
Fort William,187,ON,200 - 90 ANEMKI PLACE,,FORT WILLIAM FIRST NATION,ON,P7J 1L3
Garden River First Nation,199,ON,"7 SHINGWAUK STREET, RR 4",,GARDEN RIVER,ON,P6A 6Z8
Ginoogaming First Nation,185,ON,PO BOX 89,,LONGLAC,ON,P0T 2A0
Grassy Narrows First Nation,149,ON,GENERAL DELIVERY,,GRASSY NARROWS,ON,P0X 1B0
Gull Bay,188,ON,"1186 MEMORIAL AVENUE, PO BOX 29100, MCINTYRE CENTRE",,THUNDER BAY,ON,P7B 6P9
Henvey Inlet First Nation,231,ON,295 PICKEREL RIVER RD,,PICKEREL,ON,P0G 1J0
Hiawatha First Nation,162,ON,123 Paudash Street,,HIAWATHA FIRST NATION,ON,K9J 0E6
Iskatewizaagegan #39 Independent First Nation,154,ON,GENERAL DELIVERY,,KEJICK,ON,P0X 1E0
Kasabonika Lake,210,ON,PO BOX 124,,KASABONIKA LAKE,ON,P0V 1Y0
Kee-Way-Win,325,ON,GENERAL DELIVERY,,KEEWAYWIN,ON,P0V 3G0
Kingfisher,212,ON,PO BOX 57,,KINGFISHER LAKE,ON,P0V 1Z0
North Spirit Lake,238,ON,GENERAL DELIVERY,,NORTH SPIRIT LAKE,ON,P0V 2G0
Northwest Angle No.33,151,ON,BOX 1490,,KENORA,ON,P9N 3X7
Ojibway Nation of Saugeen,258,ON,GENERAL DELIVERY,,SAVANT LAKE,ON,P0V 2S0
Shoal Lake No.40,155,ON,GENERAL DELIVERY,,KEJICK,ON,P0X 1E0
Wapekeka,206,ON,PO BOX 2,,WAPEKEKA,ON,P0V 1B0
Wasauksing First Nation,136,ON,PO BOX 250,,PARRY SOUND,ON,P2A 2X4
Washagamis Bay,235,ON,PO BOX 625,,KEEWATIN,ON,P0X 1C0
Wawakapewin,234,ON,PO BOX 477,,SIOUX LOOKOUT,ON,P8T 1A8
Cree Nation of Mistissini,75,QC,187 Main Street,,Mistissini,QC,G0W 1C0
Cree Nation of Nemaska,59,QC,32 Machishteewyaau Trail,,Nemaska,QC,J0Y 3B0
Cree Nation of Wemindji,60,QC,"16 BEAVER ROAD,  PO BOX 60",,WEMINDJI,QC,J0M 1L0
Eastmain,57,QC,"76 Nouchimi,  P.O. Box 90",,Eastmain,QC,J0M 1W0
Micmacs of Gesgapegiag,52,QC,100 PERRON BLVD,,GESGAPEGIAG,QC,G0C 1Y0
Mohawks of Kahnawake,70,QC,P.O. Box 720,,Kahnawake,QC,J0L 1B0
Mohawks of Kanesatake,69,QC,681 Ste-Philomene Street,,Kanesatake,QC,J0N 1E0
Montagnais de Pakua Shipi,88,QC,CP 178,,St-Augustin-Saguenay,QC,G0G 2R0
Montagnais de Unamen Shipu,84,QC,90 rue du Large,,La Romaine,QC,G0G 1M0
Naskapi Nation of Kawawachikamach,81,QC,P.O. Box 5111,,Kawawachikamach,QC,G0G 2Z0
Nation Anishnabe du Lac Simon,63,QC,"1026 Boulevard Cicip, CP 139",,Lac Simon,QC,J0Y 3M0
Nation Huronne Wendat,50,QC,255 place Chef-Michel-Laveau,,Wendake,QC,G0A 4V0
Odanak,72,QC,104 Rue Sibosis,,Odanak,QC,J0G 1H0
Ouje-Bougoumou Cree Nation,89,QC,"203 Opemisika Meskino Street, P.O. Box 1169",,Ouje-Bougoumou,QC,G0W 3C0
Birch Narrows First Nation,403,SK,GENERAL DELIVERY,,TURNOR LAKE,SK,S0M 3E0
Black Lake,359,SK,PO BOX 27,,BLACK LAKE,SK,S0J 0H0
Buffalo River Dene Nation,398,SK,GENERAL DELIVERY,,DILLON,SK,S0M 0S0
Canoe Lake Cree First Nation,394,SK,GENERAL DELIVERY,,CANOE NARROWS,SK,S0M 0K0
Carry The Kettle,378,SK,PO BOX 57,,SINTALUTA,SK,S0G 4N0
Clearwater River Dene,401,SK,PO BOX 5050,,CLEARWATER RIVER,SK,S0M 3H0
Cote First Nation 366,366,SK,PO BOX 1659,,KAMSACK,SK,S0A 1S0
Little Pine,340,SK,PO BOX 70,,PAYNTON,SK,S0M 2J0
Lucky Man,341,SK,103B PACKHAM AVENUE,,SASKATOON,SK,S7N 4K4
Makwa Sahgaiehcan First Nation,396,SK,PO BOX 340,,LOON LAKE,SK,S0M 1L0
Ministikwan Lake Cree Nation,397,SK,PO BOX 240,,ISLAND LAKE,SK,S0M 3G0
Pasqua First Nation #79,383,SK,PO BOX 79,,PASQUA,SK,S0G 5M0
Peepeekisis Cree Nation No.81,384,SK,PO BOX 518,,BALCARRES,SK,S0G 0C0
Pelican Lake,405,SK,PO BOX 399,,LEOVILLE,SK,S0J 1N0
Peter Ballantyne Cree Nation,355,SK,GENERAL DELIVERY,,PELICAN NARROWS,SK,S0P 0E0
Pheasant Rump Nakota,409,SK,PO BOX 238,,KISBEY,SK,S0C 1L0
Piapot,385,SK,GENERAL DELIVERY,,ZEHNER,SK,S0G 5K0
Zagime Anishinabek,364,SK,PO BOX 339,,GRENFELL,SK,S0G 2B0
Aishihik,490,YT,,,,,
Alexander,438,AB,PO BOX 3419,,MORINVILLE,AB,T8R 1S3
Alexis Nakota Sioux Nation,437,AB,PO BOX 7,,GLENEVIS,AB,T0E 0X0
Athabasca Chipewyan First Nation,463,AB,PO BOX 366,,FORT CHIPEWYAN,AB,T0P 1B0
Bearspaw,473,AB,PO BOX 40,,MORLEY,AB,T0L 1N0
Beaver First Nation,445,AB,PO BOX 270,,HIGH LEVEL,AB,T0H 1Z0
Beaver Lake Cree Nation,460,AB,PO BOX 960,,LAC LA BICHE,AB,T0A 2C0
Bigstone Cree Nation,458,AB,PO BOX 960,,WABASCA,AB,T0G 2K0
Blood,435,AB,PO BOX 60,,STANDOFF,AB,T0L 1Y0
Chiniki,433,AB,PO BOX 40,,MORLEY,AB,T0L 1N0
Chipewyan Prairie First Nation,470,AB,GENERAL DELIVERY,,CHARD,AB,T0P 1G0
Cold Lake First Nations,464,AB,PO BOX 1769,,COLD LAKE,AB,T9M 1P4
Dene Tha',448,AB,PO BOX 120,,CHATEH,AB,T0H 0S0
Driftpile Cree Nation,450,AB,PO BOX 30,,DRIFTPILE,AB,T0G 0V0
Duncan's First Nation,451,AB,PO BOX 148,,BROWNVALE,AB,T0H 0L0
Enoch Cree Nation #440,440,AB,PO BOX 29,,ENOCH,AB,T7X 3Y3
Ermineskin Tribe,443,AB,PO BOX 219,,MASKWACIS,AB,T0C 1N0
Horse Lake First Nation,449,AB,PO BOX 303,,HYTHE,AB,T0H 2C0
Kapawe'no First Nation,452,AB,PO BOX 10,,GROUARD,AB,T0G 1C0
Kehewin Cree Nation,466,AB,PO BOX 220,,KEHEWIN,AB,T0A 1C0
Little Red River Cree Nation,447,AB,PO BOX 30,,JOHN D'OR PRAIRIE,AB,T0H 3X0
Loon River Cree,476,AB,PO BOX 189,,RED EARTH CREEK,AB,T0G 1X0
Louis Bull,439,AB,PO BOX 130,,MASKWACIS,AB,T0C 1N0
Lubicon Lake,453,AB,PO BOX1351,,ISIDORE,AB,T0H 3B0
Mikisew Cree First Nation,461,AB,PO BOX 90,,FORT CHIPEWYAN,AB,T0P 1B0
Montana,442,AB,PO BOX 70,,MASKWACIS,AB,TOC 1N0
O'Chiese,431,AB,PO BOX 1570,,ROCKY MOUNTAIN HOUSE,AB,T4T 1B2
Paul,441,AB,PO BOX 89,,DUFFIELD,AB,T0E 0N0
Peerless Trout First Nation,478,AB,PO BOX 128,,PEERLESS LAKE,AB,T0G 2W0
Piikani Nation,436,AB,PO BOX 70,,BROCKET,AB,T0K 0H0
Saddle Lake Cree Nation,462,AB,PO BOX 100,,SADDLE LAKE,AB,T0A 3T0
Samson,444,AB,PO BOX 159,,MASKWACIS,AB,TOC 1NO
Sawridge First Nation,454,AB,PO BOX 326,,SLAVE LAKE,AB,T0G 2A0
Siksika Nation,430,AB,PO BOX 1100,,SIKSIKA,AB,T0J 3W0
Smith's Landing First Nation,477,AB,PO BOX 1470,,FORT SMITH,NT,X0E 0P0
Stoney,471,AB,PO BOX 40,,MORLEY,AB,T0L 1N0
Sucker Creek,456,AB,PO BOX 65,,ENILDA,AB,T0G 0W0
Sunchild First Nation,434,AB,PO BOX 747,,ROCKY MOUNTAIN HOUSE,AB,T4T 1A5
Swan River First Nation,457,AB,PO BOX 270,,KINUSO,AB,T0G 1K0
Tallcree Tribal Government,446,AB,PO BOX 100,,FORT VERMILION,AB,T0H 1N0
Tsuut'ina Nation,432,AB,200 - 9911 CHIILA BLVD SW,,TSUU T'INA,AB,T2W 6H6
Wesley,475,AB,PO BOX 40,,MORLEY,AB,T0L 1N0
Whitefish Lake,459,AB,GENERAL DELIVERY,,ATIKAMEG,AB,T0G 0C0
Woodland Cree First Nation,474,AB,GENERAL DELIVERY,,CADOTTE LAKE,AB,T0H 0N0
Akisqnuk First Nation,604,BC,3050 HIGHWAY 93 / 95,,WINDERMERE,BC,V0B 2L2
aqam Community,602,BC,7470 MISSION ROAD,,CRANBROOK,BC,V1C 7E5
Esdilagh First Nation,709,BC,4 - 9001 WEST FRASER RD,,QUESNEL,BC,V2J 6R4
Adams Lake,684,BC,PO BOX 588,,CHASE,BC,V0E 1M0
Ahousaht,659,BC,GENERAL DELIVERY,,AHOUSAHT,BC,V0R 1A0
Aitchelitz,558,BC,8161 AITCHELITZ ROAD,,CHILLIWACK,BC,V2R 4H4
Ashcroft,685,BC,PO BOX 440,,ASHCROFT,BC,V0K 1A0
Boston Bar First Nation,701,BC,PO BOX 369,,BOSTON BAR,BC,V0K 1C0
Bridge River,590,BC,PO BOX 190,,LILLOOET,BC,V0K 1V0
Burns Lake,619,BC,BAG 9000,,BURNS LAKE,BC,V0J 1E0
Campbell River,622,BC,1650 OLD SPIT ROAD,,CAMPBELL RIVER,BC,V9W 3E8
Canim Lake,713,BC,PO BOX 1030,,100 MILE HOUSE,BC,V0K 2E0
Cape Mudge,623,BC,690 HEADSTART CRES,,CAMPBELL RIVER,BC,V9H 1P9
Cayoose Creek,591,BC,PO BOX 484,,LILLOOET,BC,V0K 1V0
Chawathil,583,BC,4-60814 LOUGHEED HIGHWAY,,HOPE,BC,V0X 1L3
Cheam,584,BC,52161 Victor Drive,,Rosedale,BC,V0X 1X1
Cheslatta Carrier Nation,620,BC,PO BOX 909,,BURNS LAKE,BC,V0J 1E0
Coldwater,693,BC,PO BOX 4600,,MERRITT,BC,V1K 1B8
Cook's Ferry,694,BC,PO BOX 130,,SPENCES BRIDGE,BC,V0K 2L0
Cowichan,642,BC,5760 ALLENBY ROAD,,DUNCAN,BC,V9L 5J1
Da'naxda'xw First Nation,635,BC,PO BOX 330,,ALERT BAY,BC,V0N 1A0
Ditidaht,662,BC,PO BOX 340,,PORT ALBERNI,BC,V9Y 7M8
Doig River First Nation,548,BC,PO BOX 56,,ROSE PRAIRIE,BC,V0C 2H0
Esquimalt,644,BC,1189 KOSAPSUM CRESCENT,,VICTORIA,BC,V9A 7K7
Fort Nelson First Nation,543,BC,"MILE 295 ALASKA HWY,  RR 1",,FORT NELSON,BC,V0C 1R0
Gitanmaax,531,BC,PO BOX 440,,HAZELTON,BC,V0J 1Y0
Gitanyow,537,BC,PO BOX 340,,KITWANGA,BC,V0J 2A0
Gitga'at First Nation,675,BC,"GENERAL DELIVERY, 445 HAYIMIISAXAA WAY",,HARTLEY BAY,BC,V0V 1A0
Gitsegukla,535,BC,710 RAY CHARLES AVE,,GITSEGUKLA,BC,V0J 2J3
Gitwangak,536,BC,PO BOX 400,,KITWANGA,BC,V0J 2A0
Gitxaala Nation,672,BC,PO BOX 149,,KITKATLA,BC,V0V 1C0
Glen Vowell,533,BC,9500 SIK-E-DAKH RD,,SIK-E-DAKH,BC,V0J 1Y3
Gwa'Sala-Nakwaxda'xw,724,BC,PO BOX 998,,PORT HARDY,BC,V0N 2P0
Gwawaenuk Tribe,627,BC,PO BOX 344,,PORT MCNEIL,BC,V0N 2R0
Hagwilget First Nation Government,534,BC,PO BOX 460,,NEW HAZELTON,BC,V0J 2J0
Haisla Nation,676,BC,PO BOX 1101,,HAISLA,BC,V0T 2B0
Halalt,645,BC,"7973 CHEMAINUS ROAD,  RR 5",,CHEMAINUS,BC,V0R 1K5
Halfway River First Nation,546,BC,PO BOX 59,,WONOWON,BC,V0C 2N0
Heiltsuk,538,BC,PO BOX 880,,BELLA BELLA,BC,V0T 1Z0
Hesquiaht,661,BC,PO BOX 2000,,TOFINO,BC,V0R 2Z0
High Bar,703,BC,PO BOX 458,,CLINTON,BC,V0K 1K0
Homalco,552,BC,1218 BUTE CRESCENT,,CAMPBELL RIVER,BC,V9H 1G5
Hupacasath First Nation,664,BC,PO BOX 211,,PORT ALBERNI,BC,V9Y 7M7
Huu-ay-aht First Nations,663,BC,"HUU-AY-AHT TREATY OFFICE, 3483 3RD AVE",,PORT ALBERNI,BC,V9Y 4E4
Iskut,683,BC,PO BOX 30,,ISKUT,BC,V0J 1K0
Komoks First Nation,624,BC,3330 COMOX ROAD,,COURTENAY,BC,V9N 3P8
Kyuquot/Cheklesahht First Nations,638,BC,GENERAL DELIVERY,,KYUQUOT,BC,V0P 1J0
Kanaka Bar,704,BC,"PO BOX 610, 2693 SIWASH ROAD",,LYTTON,BC,V0K 1Z0
Katzie,563,BC,10946 KATZIE ROAD,,PITT MEADOWS,BC,V3Y 2G6
Kispiox,532,BC,1336 KISPIOX VALLEY ROAD,,KISPIOX,BC,V0J 1Y4
Kitasoo,540,BC,GENERAL DELIVERY,,KLEMTU,BC,V0T 1L0
Kitselas,680,BC,2225 GITAUS ROAD,,TERRACE,BC,V8G 0A9
Kitsumkalum,681,BC,PO BOX 544,,TERRACE,BC,V8G 4B5
Klahoose First Nation,553,BC,"PO BOX 9, CORTES ISLAND",,SQUIRREL COVE,BC,V0P 1T0
Kwadacha,610,BC,497 - 3RD AVENUE,,PRINCE GEORGE,BC,V2L 3C1
Kwakiutl,626,BC,PO BOX 1440,,PORT HARDY,BC,V0N 2P0
Kwantlen First Nation,564,BC,"23690 GABRIEL LANE,  PO BOX 108",,FORT LANGLEY,BC,V1M 2R4
Kwaw-kwaw-Apilt,580,BC,"BLDG#10 3RD FLOOR,  7201 VEDDER RD",,CHILLIWACK,BC,V2R 4L9
Kwiakah,628,BC,"PO BOX 437, STATION A",,CAMPBELL RIVER,BC,V9W 5B6
Leq'a:mel First Nation,579,BC,43101 LEQ'A: MEL WAY,,DEROCHE,BC,V0M 1G0
Lheidli T'enneh,611,BC,1041 WHENUN ROAD,,PRINCE GEORGE,BC,V2K 5X8
Lhoosk'uz Dene Nation,721,BC,PO BOX 4339,,QUESNEL,BC,V2J 3J8
Lhtako Dene Nation,715,BC,PO BOX 4069,,QUESNEL,BC,V2J 3J2
Lil'wat Nation,557,BC,PO BOX 602,,MOUNT CURRIE,BC,V0N 2K0
Little Shuswap Lake,689,BC,1886 LITTLE SHUSWAP LAKE ROAD,,CHASE,BC,V0E 1M2
Lower Kootenay,606,BC,830 SIMON ROAD,,CRESTON,BC,V0B 1G2
Lower Nicola,695,BC,181 NAWISHASKIN LANE,,MERRITT,BC,V1K 0A7
Lower Similkameen,598,BC,"517TH AVENUE, PO BOX 100",,KEREMEOS,BC,V0X 1N0
Lyackson,646,BC,7973A CHEMAINUS ROAD,,CHEMAINUS,BC,V0R 1K5
Lytton,705,BC,PO BOX 20,,LYTTON,BC,V0K 1Z0
Malahat Nation,647,BC,"110 THUNDER ROAD,  RR 4",,MILL BAY,BC,V0R 2P4
Mamalilikulla First Nation,629,BC,1441-B 16TH AVENUE,,CAMPBELL RIVER,BC,V9W 2E4
Matsqui First Nation,565,BC,PO BOX 10,,MATSQUI,BC,V4X 3R2
McLeod Lake,618,BC,GENERAL DELIVERY,,MCLEOD LAKE,BC,V0J 2G0
Metlakatla First Nation,673,BC,PO BOX 459,,PRINCE RUPERT,BC,V8J 3R2
Mowachaht/Muchalaht,630,BC,PO BOX 459,,GOLD RIVER,BC,V0P 1G0
Musqueam,550,BC,6735 SALISH DRIVE,,VANCOUVER,BC,V6N 4C4
Nak'azdli Whut'en,614,BC,PO BOX 1329,,FORT ST. JAMES,BC,V0J 1P0
Namgis First Nation,631,BC,PO BOX 210,,ALERT BAY,BC,V0N 1A0
Nanoose First Nation,649,BC,209 MALLARD WAY,,LANTZVILLE,BC,V0R 2H0
Nazko First Nation,720,BC,PO BOX 4129,,QUESNEL,BC,V2J 3J2
Nee-Tahi-Buhn,726,BC,47805 OLSON ROAD,,BURNS LAKE,BC,V0J 1E4
Neskonlith,690,BC,PO BOX 318,,CHASE,BC,V0E 1M0
New Westminster,566,BC,105 - 3680 RAE AVENUE,,VANCOUVER,BC,V5R 2P5
Nicomen,696,BC,PO BOX 670,,LYTTON,BC,V0K 1Z0
Nisga'a Village of Gingolx,671,BC,607 FRONT ST,,GINGOLX,BC,V0V 1B0
Nisga'a Village of Gitwinksihlkw,679,BC,"PO BOX 1, 3004 TS'OOHL TS'AP AVE",,GITWINKSIHLKW,BC,V0J 3T0
Nisga'a Village of Laxgalt'sap,678,BC,"PO BOX 200, 416 NORTH RD",,GREENVILLE,BC,V0J 1X0
Nisga'a Village of New Aiyansh,677,BC,"PO BOX 233,  5200 SKATEEN DR",,NEW AIYANSH,BC,V0J 1A0
Nooaitch,699,BC,2954 SHACKELLY ROAD,,MERRITT,BC,V1K 1N9
Nuchatlaht,639,BC,PO BOX 40,,ZEBALLOS,BC,V0P 2A0
Nuxalk Nation,539,BC,PO BOX 65,,BELLA COOLA,BC,V0T 1C0
Okanagan,616,BC,12420 WESTSIDE RD,,VERNON,BC,V1H 2A4
Old Massett Village Council,669,BC,PO BOX 189,,OLD MASSET,BC,V0T 1M0
Oregon Jack Creek,692,BC,PO BOX 940,,ASHCROFT,BC,V0K 1A0
Pauquachin,652,BC,9010 WEST SAANICH ROAD,,SIDNEY,BC,V8L 5W4
Penelakut Tribe,650,BC,PO BOX 360,,CHEMAINUS,BC,V0R 1K0
Penticton,597,BC,RR 2 SITE 80 COMP 19,,PENTICTON,BC,V2A 6J7
Peters First Nation,586,BC,16870 PETERS ROAD,,HOPE,BC,V0X 1L2
Popkum,585,BC,54951 JULSETH ROAD,,POPKUM,BC,V0X 1X1
Prophet River First Nation,544,BC,PO BOX 3250,,FORT NELSON,BC,V0C 1R0
Qualicum First Nation,651,BC,5850 RIVER ROAD,,QUALICUM BEACH,BC,V9K 1Z5
Quatsino,633,BC,305 QUATTISHE ROAD,,COAL HARBOUR,BC,V0N 1K0
Saik'uz First Nation,615,BC,135 JOSEPH STREET,,VANDERHOOF,BC,V0J 3A1
Samahquam,567,BC,PO BOX 610,,MOUNT CURRIE,BC,V0N 2K0
Saulteau First Nations,542,BC,PO BOX 1020,,CHETWYND,BC,V0C 1J0
Seabird Island,581,BC,PO BOX 650,,AGASSIZ,BC,V0M 1A0
Sechelt,551,BC,"PO BOX 740, 5555 SUNSHINE COAST HWY",,SECHELT,BC,V0N 3A0
Semiahmoo,569,BC,16049 BEACH ROAD,,SURREY,BC,V3S 9R6
Shackan,698,BC,PO BOX 1360,,MERRITT,BC,V1K 1B8
Shuswap,605,BC,"RR#2, 3A - 492 Arrow Road",,INVERMERE,BC,V0A 1K2
Skatin Nations,562,BC,PO Box 478,,Mount Currie,BC,V0N 2K0
Skawahlook First Nation,582,BC,58611A LOUGHEED HWY,,AGASSIZ,BC,V0M 1A2
Skeetchestn,687,BC,PO BOX 178,,SAVONA,BC,V0K 2J0
Skidegate,670,BC,PO BOX 1301,,SKIDEGATE,BC,V0T 1S1
Skin Tyee,729,BC,PO BOX 131,,SOUTHBANK,BC,V0J 2P0
Skowkale,571,BC,PO BOX 2159,,SARDIS,BC,V2R 1A7
Skuppah,707,BC,PO BOX 548,,LYTTON,BC,V0K 1Z0
Skwah,573,BC,PO BOX 178,,CHILLIWACK,BC,V2P 6H7
Snuneymuxw First Nation,648,BC,668 CENTRE STREET,,NANAIMO,BC,V9R 4Z4
Soda Creek,716,BC,3405 MOUNTAIN HOUSE ROAD,,WILLIAMS LAKE,BC,V2G 5L5
Songhees Nation,656,BC,1100 ADMIRALS RD,,VICTORIA,BC,V9A 2P6
Stz'uminus First Nation,641,BC,12611-A TRANS CANADA HIGHWAY,,LADYSMITH,BC,V9G 1M5
Sumas First Nation,578,BC,2788 SUMAS MOUNTAIN ROAD,,ABBOTSFORD,BC,V3G 2J2
T'it'q'et,593,BC,PO BOX 615,,LILLOOET,BC,V0K 1V0
T'Sou-ke First Nation,657,BC,PO BOX 307,,SOOKE,BC,V9Z 1G1
Tahltan,682,BC,PO BOX 46,,TELEGRAPH CREEK,BC,V0J 2W0
Takla Nation,608,BC,"Unit 401-1777, 3rd Avenue",,PRINCE GEORGE,BC,V2L 3G7
Tk'emlups te Secwepemc,688,BC,200 - 330 CHIEF ALEX THOMAS WAY,,KAMLOOPS,BC,V2H 1H1
Tl'azt'en Nation,617,BC,PO BOX 670,,FORT ST. JAMES,BC,V0J 1P0
Tl'etinqox Government,712,BC,PO BOX 168,,ALEXIS CREEK,BC,V0L 1A0
Tla-o-qui-aht First Nations,660,BC,PO BOX 18,,TOFINO,BC,V0R 2Z0
Tla'amin Nation,554,BC,4779 KLAHANIE ROAD,,POWELL RIVER,BC,V8A 0C4
Tlatlasikwala,632,BC,PO BOX 339,,PORT HARDY,BC,V0N 2P0
Tlowitsis Tribe,637,BC,1345 BUTE CRESCENT,,CAMPBELL RIVER,BC,V9H 1G6
Tobacco Plains,603,BC,PO BOX 76,,GRASMERE,BC,V0B 1R0
Toosey,718,BC,PO BOX 80,,RISKE CREEK,BC,V0L 1T0
Toquaht,666,BC,"1971 PENINSULA ROAD, PO BOX 759",,UCLUELET,BC,V0R 3A0
Ts'kw'aylaxw First Nation,594,BC,PO BOX 2200,,LILLOOET,BC,V0K 1V0
Tsawout First Nation,654,BC,7728 TETAYUT ROAD,,SAANICHTON,BC,V8M 2E4
Tsawwassen First Nation,577,BC,1926 TSAWWASSEN DR. N.,,DELTA,BC,V4M 4G4
Tsay Keh Dene,609,BC,1940 - 3rd Avenue,,Prince George,BC,V2M 1G7
Tseshaht,665,BC,5091 TSUMA-AS DR,,PORT ALBERNI,BC,V9Y 8X9
Tseycum,655,BC,1210 TOTEM LANE,,NORTH SAANICH,BC,V8L 5S4
Tsideldel First Nation,710,BC,PO BOX 69,,CHILANKO FORKS,BC,V0L 1H0
Tsleil-Waututh Nation,549,BC,3075 TAKAYA DRIVE,,NORTH VANCOUVER,BC,V7H 3A8
Tzeachten,575,BC,45855 PROMONTORY ROAD,,CHILLIWACK,BC,V2R 0H3
Uchucklesaht,667,BC,"5251 ARGYLE STREET, SUITE A",,PORT ALBERNI,BC,V9Y 1V1
Ucluelet First Nation,668,BC,PO BOX 699,,UCLUELET,BC,V0R 3A0
Ulkatcho,722,BC,PO BOX 3430,,ANAHIM LAKE,BC,V0L 1C0
Union Bar First Nation,588,BC,66427 KAWKAWA LAKE RD,,HOPE,BC,V0X 1L1
Upper Nicola,697,BC,PO BOX 3700,,MERRITT,BC,V1K 1B8
Upper Similkameen,599,BC,PO BOX 220,,HEDLEY,BC,V0X 1K0
West Moberly First Nations,545,BC,PO BOX 90,,MOBERLY LAKE,BC,V0C 1X0
Wuikinuxv Nation,541,BC,"WUIKINUXV VILLAGE RIVERS INLET, PO BOX 3500",,PORT HARDY,BC,V0N 2P0
Xaxli'p,592,BC,PO BOX 1330,,LILLOOET,BC,V0K 1V0
Xeni Gwet'in First Nations Government,714,BC,GENERAL DELIVERY,,NEMIAH VALLEY,BC,V0L 1X0
Yakweakwioose,576,BC,"RR 2, 7176 CHILLIWACK RIVER ROAD",,SARDIS,BC,V2R 1B1
Yale First Nation,589,BC,PO BOX 1869,,HOPE,BC,V0X 1L0
Yekooche First Nation,728,BC,1890 - 3RD AVENUE,,PRINCE GEORGE,BC,V2M 1G4
Yunesit'in Government,717,BC,PO BOX 158,,HANCEVILLE,BC,V0L 1K0
Barren Lands,308,MB,PO BOX 40,,BROCHET,MB,R0B 0B0
Berens River,266,MB,PO BOX 131,,BERENS RIVER,MB,R0B 0A0
Birdtail Sioux,284,MB,PO BOX 22,,BEULAH,MB,R0M 0B0
Black River First Nation,260,MB,GENERAL DELIVERY,,O'HANLEY,MB,R0E 1K0
Bloodvein,267,MB,GENERAL DELIVERY,,BLOODVEIN,MB,R0C 0J0
Brokenhead Ojibway Nation,261,MB,GENERAL DELIVERY,,SCANTERBURY,MB,R0E 1W0
Buffalo Point First Nation,265,MB,PO BOX 1037,,BUFFALO POINT,MB,R0A 2W0
Bunibonibee Cree Nation,301,MB,GENERAL DELIVERY,,OXFORD HOUSE,MB,R0B 1C0
Dauphin River,316,MB,PO BOX 58,,GYPSUMVILLE,MB,R0C 1J0
Ebb and Flow,280,MB,PO BOX 159,,EBB AND FLOW,MB,R0L 0R0
Fisher River,264,MB,PO BOX 367,,KOOSTATAK,MB,R0C 1S0
Fort Alexander,262,MB,PO BOX 3,,FORT ALEXANDER,MB,R0E 0P0
Fox Lake,305,MB,PO BOX 369,,GILLAM,MB,R0B 0L0
Gambler First Nation,294,MB,PO BOX 250,,BINSCARTH,MB,R0J 0G0
Garden Hill First Nations,297,MB,GENERAL DELIVERY,,ISLAND LAKE,MB,R0B 0T0
God's Lake First Nation,296,MB,PO BOX 258,,GOD'S LAKE NARROWS,MB,R0B 0M0
Hollow Water,263,MB,PO BOX 2561,,WANIPIGOW,MB,R0E 2E0
Keeseekoowenin,286,MB,PO BOX 100,,ELPHINSTONE,MB,R0J 0N0
Kinonjeoshtegon First Nation,268,MB,PO BOX 210,,DALLAS,MB,R0C 0S0
Lake Manitoba,271,MB,PO BOX 1250,,LAKE MANITOBA FIRST NATION,MB,R0C 3K0
Lake St. Martin,275,MB,550 BERRY ST,,WINNIPEG,MB,R3H 0R9
Mosakahiken Cree Nation,312,MB,GENERAL DELIVERY,,MOOSE LAKE,MB,R0B 0Y0
Nisichawayasihk Cree Nation,313,MB,GENERAL DELIVERY,,NELSON HOUSE,MB,R0B 1A0
Northlands Denesuline First Nation,317,MB,PO BOX 120,,LAC BROCHET,MB,R0B 2E0
Norway House Cree Nation,278,MB,PO BOX 250,,NORWAY HOUSE,MB,R0B 1B0
O-Chi-Chak-Ko-Sipi First Nation,279,MB,PO BOX 103,,CRANE RIVER,MB,R0L 0M0
O-Pipon-Na-Piwin Cree Nation,318,MB,PO BOX 139,,SOUTH INDIAN LAKE,MB,R0B 1N0
Opaskwayak Cree Nation,315,MB,PO BOX 10880,,OPASKWAYAK,MB,R0B 2J0
Pauingassi First Nation,327,MB,PO BOX 60,,PAUINGASSI,MB,R0B 2G0
Peguis,269,MB,PO BOX 10,,PEGUIS RESERVE,MB,R0C 3J0
Pinaymootang First Nation,272,MB,General Delivery,,FAIRFORD,MB,R0C 0X0
Pine Creek,282,MB,PO BOX 70,,CAMPERVILLE,MB,R0L 0J0
Poplar River First Nation,277,MB,PO BOX 90,,NEGGINAN,MB,R0B 0Z0
Red Sucker Lake,300,MB,GENERAL DELIVERY,,RED SUCKER LAKE,MB,R0B 1H0
Rolling River,291,MB,PO BOX 145,,ERICKSON,MB,R0J 0P0
Roseau River Anishinabe First Nation Government,273,MB,PO BOX 30,,GINEW,MB,R0A 2R0
Sandy Bay,283,MB,PO BOX 109,,MARIUS,MB,R0H 0T0
Sapotaweyak Cree Nation,314,MB,"GENERAL DELIVERY, VIA PELICAN RAPIDS",,PELICAN RAPIDS,MB,R0L 1L0
Sayisi Dene First Nation,303,MB,GENERAL DELIVERY,,TADOULE LAKE,MB,R0B 2C0
Skownan First Nation,281,MB,GENERAL DELIVERY,,SKOWNAN,MB,R0L 1Y0
St. Theresa Point,298,MB,GENERAL DELIVERY,,ST THERESA POINT,MB,R0B 1J0
Swan Lake,293,MB,PO BOX 368,,SWAN LAKE,MB,R0G 2S0
Tataskweyak Cree Nation,306,MB,PO BOX 250,,SPLIT LAKE,MB,R0B 1P0
Tootinaowaziibeeng Treaty Reserve,292,MB,P.O. Box 1,,SHORTDALE,MB,R0L 1W0
War Lake First Nation,323,MB,GENERAL DELIVERY,,ILFORD,MB,R0B 0S0
Wasagamack First Nation,299,MB,PO BOX 1,,WASAGAMACK,MB,R0B 1Z0
Waywayseecappo First Nation Treaty Four - 1874,285,MB,PO BOX 9,,WAYWAYSEECAPPO,MB,R0J 1S0
Wuskwi Sipihk First Nation,324,MB,PO BOX 220,,BIRCH RIVER,MB,R0L 0E0
York Factory First Nation,304,MB,GENERAL DELIVERY,,YORK LANDING,MB,R0B 2B0
Buctouche MicMac,4,NB,9 RESERVE ROAD,,BUCTOUCHE RESERVE,NB,E4S 4G2
Eel Ground,7,NB,47 CHURCH RD,,EEL GROUND,NB,E1V 4E6
Eel River Bar First Nation,8,NB,"11 MAIN STREET, UNIT 201",,EEL RIVER BAR,NB,E8C 1A1
Elsipogtog First Nation,3,NB,373 BIG COVE ROAD,,ELSIPOGTOG FIRST NATION,NB,E4W 2S3
Esgenoopetitj First Nation,5,NB,621 BAYVIEW DRIVE,,BURNT CHURCH,NB,E9G 2A8
Oromocto First Nation,12,NB,"PO BOX 417, 4 HIAWATHA AVENUE",,OROMOCTO,NB,E2V 2J2
Pabineau,13,NB,1290 PABINEAU FALLS ROAD,,PABINEAU FIRST NATION,NB,E2A 7M3
Saint Mary's,15,NB,150 CLIFFE STREET,,FREDERICTON,NB,E3A 0A1
Tobique,16,NB,13156 ROUTE 105,,TOBIQUE FIRST NATION,NB,E7H 5M7
Woodstock,17,NB,3 WULASTOOK COURT,,WOODSTOCK FIRST NATION,NB,E7M 4K6
Miawpukek,47,NL,"50 MIAWPUKEK DRIVE, PO BOX 10",,CONNE RIVER,NL,A0H 1J0
Mushuau Innu First Nation,32,NL,PO BOX 190,,NATUASHISH,NL,A0P 1A0
Qalipu Mi'kmaq First Nation,34,NL,3 CHURCH STREET,,CORNER BROOK,NL,A2H 2Z4
Sheshatshiu Innu First Nation,33,NL,PO BOX 160,,SHESHATSHIU FIRST NATION,NL,A0P 1M0
Acadia,18,NS,10526 HIGHWAY 3,,YARMOUTH,NS,B5A 4A8
Annapolis Valley,20,NS,29 TONEY BLVD,,CAMBRIDGE 32,NS,B0P 1G0
Wagmatcook,28,NS,PO BOX 30001,,WAGMATCOOK,NS,B0E 3N0
We'koqma'q First Nation,29,NS,150 Reservation Road,,Waycobah,NS,B0E 3M0
Acho Dene Koe First Nation,758,NT,GENERAL DELIVERY,,FORT LIARD,NT,X0E 0A0
Aklavik,755,NT,PO BOX 118,,AKLAVIK,NT,X0E 0A0
Behdzi Ahda' First Nation,771,NT,PO BOX 53,,COLVILLE LAKE,NT,X0E 0L0
Dechi Laot'i First Nations,774,NT,PO BOX 34,,WEKWETI,NT,X0E 1W0
Deh Gah Got'ie Dene First Nation,760,NT,PO BOX 200,,FORT PROVIDENCE,NT,X0E 0L0
Deline First Nation,754,NT,PO BOX 156,,DELINE,NT,X0E 0G0
Deninu K'ue First Nation,762,NT,PO BOX 1899,,FORT RESOLUTION,NT,X0E 0M0
Dog Rib Rae,765,NT,PO BOX 412,,BEHCHOKO,NT,X0E 0Y0
Fort Good Hope,752,NT,PO BOX 80,,FORT GOOD HOPE,NT,X0E 0H0
Gameti First Nation,773,NT,PO BOX 104,,GAMETI,NT,X0E 1R0
Gwichya Gwich'in,753,NT,PO BOX 4,,TSIIGEHTCHIC,NT,X0E 0B0
Inuvik Native,780,NT,PO BOX 2570,,INUVIK,NT,X0E 0T0
Jean Marie River First Nation,770,NT,GENERAL DELIVERY,,JEAN MARIE RIVER,NT,X0E 0N0
K'atlodeeche First Nation,761,NT,PO BOX 3060,,HAY RIVER RESERVE,NT,X0E 1G4
Pehdzeh Ki First Nation,756,NT,GENERAL DELIVERY,,WRIGLEY,NT,X0E 1E0
Salt River First Nation #195,759,NT,PO BOX 960,,FORT SMITH,NT,X0E 0P0
Sambaa K'e First Nation,767,NT,"PO BOX 10, VIA FORT SIMPSON",,TROUT LAKE,NT,X0E 0N0
Teetl'it Gwich'in Band Council,751,NT,PO BOX 30,,FORT MCPHERSON,NT,X0E 0J0
Tulita Dene,750,NT,PO BOX 118,,TULITA,NT,X0E 0K0
West Point First Nation,772,NT,1 - 47031 MACKENZIE HWY,,HAY RIVER,NT,X0E 0R9
Wha Ti First Nation,769,NT,PO BOX 92,,WHA TI,NT,X0E 1P0
Yellowknives Dene First Nation,763,NT,PO BOX 2514,,YELLOWKNIFE,NT,X1A 2P8
Aamjiwnaang,172,ON,978 TASHMOO AVENUE,,SARNIA,ON,N7T 7H5
Albany,142,ON,PO BOX 1,,FORT ALBANY,ON,P0L 1H0
Alderville First Nation,160,ON,PO BOX 46,,ROSENEATH,ON,K0K 2X0
Algonquins of Pikwakanagan First Nation,163,ON,1657A Mishomis Inamo,,Pikwakanagan,ON,K0J 1X0
Animakee Wa Zhing #37,152,ON,PO BOX 1590,,KENORA,ON,P9N 3X7
Batchewana First Nation,198,ON,236 FRONTENAC STREET,,SAULT STE MARIE,ON,P6A 5K9
Bay of Quinte Mohawk,244,ON,"24 Meadow Dr, RR 1",,Tyendinaga�Mohawk�Territory,ON,K0K 1X0
Bearfoot Onondaga,248,ON,,,,,
Bearskin Lake,207,ON,PO BOX 25,,BEARSKIN LAKE,ON,P0V 1E0
Beausoleil,141,ON,GENERAL DELIVERY,,CEDAR POINT,ON,L0K 1C0
Big Grassy,124,ON,PO BOX 414,,MORSON,ON,P0W 1J0
Biigtigong Nishnaabeg,192,ON,PO BOX 193,,HERON BAY,ON,P0T 1R0
Biinjitiwaabik Zaaging Anishinaabek,197,ON,GENERAL DELIVERY,,MACDIARMID,ON,P0T 2B0
Bingwi Neyaashi Anishinaabek,196,ON,292 Court Street South,,Thunder Bay,ON,P7B 6C6
Brunswick House,228,ON,PO BOX 1178,,CHAPLEAU,ON,P0M 1K0
Caldwell,165,ON,14 ORANGE STREET,,LEAMINGTON,ON,N8H 1P5
Cat Lake,216,ON,PO BOX 81,,CAT LAKE,ON,P0V 1J0
Chapleau Cree First Nation,221,ON,PO BOX 400,,CHAPLEAU,ON,P0M 1K0
Chapleau Ojibway,229,ON,85 Northern Avenue East,,Sault Ste. Marie,ON,P6B 4H5
Chippewas of Georgina Island,138,ON,"RR 2, PO BOX 13",,SUTTON WEST,ON,L0E 1R0
Chippewas of Kettle and Stony Point,171,ON,6247 INDIAN LANE,,KETTLE AND STONY POINT FIRST NATION,ON,N0N 1J1
Chippewas of Nawash First Nation,122,ON,135 Lakeshore Blvd,,Neyaashiinigmiing,ON,N0H 2T0
Couchiching First Nation,126,ON,RR 2 RMB 2027,,FORT FRANCES,ON,P9A 3M3
Curve Lake,161,ON,GENERAL DELIVERY,,CURVE LAKE,ON,K0L 1R0
Deer Lake,237,ON,GENERAL DELIVERY,,DEER LAKE,ON,P0V 1N0
Delaware,253,ON,,,,,
Dokis,218,ON,948 MAIN STREET,,DOKIS FIRST NATION,ON,P0M 2N1
Eabametoong First Nation,183,ON,PO BOX 298,,FORT HOPE,ON,P0T 1L0
Eagle Lake,148,ON,PO BOX 1001,,MIGISI SAHGAIGAN,ON,P0V 3H0
Flying Post,227,ON,PO BOX 1027,,NIPIGON,ON,P0T 2J0
Fort Severn,215,ON,GENERAL DELIVERY,,FORT SEVERN,ON,P0V 1W0
Kitchenuhmaykoosib Inninuwug,209,ON,PO BOX 329,,BIG TROUT LAKE,ON,P0V 1G0
Konadaha Seneca,251,ON,,,,,
Lac Des Mille Lacs,189,ON,328 - 1100 MEMORIAL AVENUE,,THUNDER BAY,ON,P7B 4A3
Lac La Croix,127,ON,PO BOX 640,,FORT FRANCES,ON,P9A 3M9
Lac Seul,205,ON,PO BOX 100,,HUDSON,ON,P0V 1X0
Long Lake No.58 First Nation,184,ON,PO BOX 609,,LONGLAC,ON,P0T 2A0
Lower Cayuga,250,ON,,,,,
Lower Mohawk,254,ON,,,,,
M'Chigeeng First Nation,181,ON,"PO BOX 333, 53 HWY 551",,M'CHIGEENG,ON,P0P 1G0
Magnetawan,174,ON,10 HWY 529,,BRITT,ON,P0G 1A0
Martin Falls,186,ON,GENERAL DELIVERY,,OGOKI POST,ON,P0T 2L0
Matachewan,219,ON,PO BOX 160,,MATACHEWAN,ON,P0K 1M0
Mattagami,226,ON,PO BOX 99,,GOGAMA,ON,P0M 1W0
McDowell Lake,326,ON,PO BOX 321,,RED LAKE,ON,P0V 2M0
Michipicoten,225,ON,"PO BOX 1, SITE 8, RR 1",,WAWA,ON,P0S 1K0
Mishkeegogamang,203,ON,GENERAL DELIVERY,,OSNABURGH,ON,P0V 2H0
Missanabie Cree,223,ON,174B HWY 17B,,GARDEN RIVER,ON,P6A 6Z1
Mississauga,200,ON,PO BOX 1299,,BLIND RIVER,ON,P0R 1B0
Mississaugas of Scugog Island First Nation,140,ON,22521 ISLAND ROAD,,PORT PERRY,ON,L9L 1B6
Mississaugas of the Credit,120,ON,"2789 MISSISSAUGA ROAD, RR 6",,HAGERSVILLE,ON,N0A 1H0
Mitaanjigamiing First Nation,133,ON,PO BOX 609,,FORT FRANCES,ON,P9A 3M9
Mohawks of Akwesasne,159,ON,PO BOX 90,,AKWESASNE,QC,H0M 1A0
Mohawks of the Bay of Quinte,164,ON,24 MEADOW DRIVE,,TYENDINAGA MOHAWK TERRITORY,ON,K0K 1X0
Moose Cree First Nation,144,ON,PO BOX 190,,MOOSE FACTORY,ON,P0L 1W0
Moose Deer Point,135,ON,PO BOX 119,,MACTIER,ON,P0C 1H0
Moravian of the Thames,167,ON,"14760 Schoolhouse Line,  RR 3",,THAMESVILLE,ON,N0P 2K0
Munsee-Delaware Nation,168,ON,RR 1,,MUNCEY,ON,N0L 1Y0
Muskrat Dam Lake,213,ON,PO BOX 140,,MUSKRAT DAM,ON,P0V 3B0
Naicatchewenin,128,ON,"PO BOX 15,  RR 1",,DEVLIN,ON,P0W 1C0
Naotkamegwanning,158,ON,1800 PAWITIK STREET,,PAWITIK,ON,P0X 1L0
Neskantaga First Nation,239,ON,PO BOX 105,,LANSDOWNE HOUSE,ON,P0T 1Z0
Nibinamik First Nation,241,ON,GENERAL DELIVERY,,SUMMER BEAVER,ON,P0T 3B0
Nigigoonsiminikaaning First Nation,129,ON,PO BOX 68,,FORT FRANCES,ON,P9A 3M5
Niharondasa Seneca,252,ON,,,,,
Niisaachewan Anishinaabe Nation,147,ON,22 BAND OFFICE RD.,,DALLES,ON,P9N 0J2
Nipissing First Nation,220,ON,36 SEMO ROAD,,GARDEN VILLAGE,ON,P2B 3K2
North Caribou Lake,204,ON,"PO Box 154, 30 Band Office Road",,WEAGAMOW LAKE,ON,P0V 2Y0
Ojibways of Onigaming First Nation,131,ON,PO BOX 160,,NESTOR FALLS,ON,P0X 1K0
Oneida,246,ON,,,,,
Oneida Nation of the Thames,169,ON,RR 2,,SOUTHWOLD,ON,N0L 2G0
Onondaga Clear Sky,247,ON,,,,,
Pays Plat,191,ON,10 CENTRAL PLACE,,PAYS PLAT,ON,P0T 3C0
Pic Mobert,195,ON,PO BOX 717,,MOBERT,ON,P0M 2J0
Pikangikum,208,ON,PO BOX 323,,PIKANGIKUM,ON,P0V 2L0
Poplar Hill,236,ON,PO BOX 1,,POPLAR HILL,ON,P0V 3E0
Rainy River First Nations,130,ON,PO BOX 450,,EMO,ON,P0W 1E0
Red Rock,193,ON,PO BOX 1030,,NIPIGON,ON,P0T 2J0
Sachigo Lake,214,ON,PO BOX 51,,SACHIGO LAKE,ON,P0V 2P0
Sagamok Anishnawbek,179,ON,PO BOX 610,,MASSEY,ON,P0P 1P0
Sandy Lake,211,ON,PO BOX 12,,SANDY LAKE,ON,P0V 1V0
Saugeen,123,ON,6493 Hwy 21,,Saugeen First Nation # 29,ON,N0H 2L0
Seine River First Nation,132,ON,PO BOX 124,,MINE CENTRE,ON,P0W 1H0
Serpent River,201,ON,"PO BOX 14, 195 VILLAGE ROAD",,CUTLER,ON,P0P 1B0
Shawanaga First Nation,137,ON,"RR1, 2 VILLAGE ROAD",,NOBEL,ON,P0G 1G0
Sheguiandah,176,ON,PO BOX 101,,SHEGUIANDAH,ON,P0P 1W0
Sheshegwaning,178,ON,1079A SHESHEGWANING ROAD,,SHESHEGWANING,ON,P0P 1X0
Six Nations of the Grand River,121,ON,PO BOX 5000,,OHSWEKEN,ON,N0A 1M0
Slate Falls Nation,259,ON,48 LAKEVIEW DR,,SLATE FALLS,ON,P0V 3C0
Taykwa Tagamou Nation,145,ON,"PO BOX 3310, RR 2",,COCHRANE,ON,P0L 1C0
Temagami First Nation,222,ON,GENERAL DELIVERY,,BEAR ISLAND,ON,P0H 1C0
Thessalon,202,ON,40 SUGARBUSH ROAD,,THESSALON,ON,P0R 1L0
Tuscarora,245,ON,,,,,
Upper Cayuga,249,ON,,,,,
Upper Mohawk,257,ON,,,,,
Wabaseemoong Independent Nations,150,ON,GENERAL DELIVERY,,WHITEDOG,ON,P0X 1P0
Wabauskang First Nation,156,ON,PO BOX 339,,EAR FALLS,ON,P0V 1T0
Wabigoon Lake Ojibway Nation,157,ON,"RR 1, SITE 115,  PO BOX 300",,DRYDEN,ON,P8N 2Y4
Wahgoshig First Nation,233,ON,RR 3,,MATHESON,ON,P0K 1N0
Wahnapitae,232,ON,259 TAIGHWENINI TRAIL ROAD,,CAPREOL,ON,P0M 1H0
Wahta Mohawk,134,ON,PO BOX 260,,BALA,ON,P0C 1A0
Walker Mohawk,255,ON,,,,,
Walpole Island,170,ON,RR 3,,WALLACEBURG,ON,N8A 4K9
Webequie,240,ON,PO BOX 268,,WEBEQUIE,ON,P0T 3A0
Weenusk,146,ON,PO BOX 1,,PEAWANUCK,ON,P0L 2H0
Whitefish River,230,ON,PO BOX A,,BIRCH ISLAND,ON,P0P 1A0
Whitesand,190,ON,PO BOX 68,,ARMSTRONG,ON,P0T 1A0
Wikwemikong,175,ON,PO BOX 112,,WIKWEMIKONG,ON,P0P 2J0
Wunnumin,217,ON,PO BOX 105,,WUNNUMIN LAKE,ON,P0V 2Z0
Zhiibaahaasing First Nation,173,ON,36 SAGON ROAD,,ZHIIBAAHAASING,ON,P0P 1X0
Abegweit,1,PE,"PO BOX 36,  11222 ST. PETERS ROAD",,SCOTCHFORT,PE,C0A 1T0
Lennox Island,2,PE,PO BOX 134,,LENNOX ISLAND,PE,C0B 1P0
Algonquins of Barriere Lake,74,QC,"Parc de la Verendrye, P.O Box 74, General Delivery",,Rapid Lake,QC,J0W 2C0
Atikamekw d'Opitciwan,79,QC,"22 rue Amisk, CP 135",,Obedjiwan,QC,G0W 3B0
Bande des Innus de Pessamit,85,QC,"4 rue Metshteu, CP 40",,Pessamit,QC,G0H 1B0
Communaute anicinape de Kitcisakik,62,QC,5206 Kitcisakik,,Val D'Or,QC,J9P 7C6
Conseil de la Premere Nation Abitibiwinni,55,QC,45 Rue Migwan,,Pikogan,QC,J9T 3A3
Conseil des Atikamekw de Wemotaci,77,QC,"36 Rue Kenosi, CP 221",,Wemotaci,QC,G0X 3R0
Cree Nation of Chisasibi,58,QC,"1 Riverside Drive, P.O. Box 150",,Chisasibi,QC,J0M 1E0
Innu Takuaikan Uashat Mak Mani-Utenam,80,QC,"265 boulevard des Montagnais, CP 8000",,Uashat,QC,G4R 4L9
Innue Essipit,86,QC,"32 rue de la Reserve, CP 820",,Essipit,QC,G0T 1K0
Kebaowek First Nation,65,QC,110 Ogima Street,,Kebaowek,QC,J0Z 3R1
Kitigan Zibi Anishinabeg,73,QC,"1 Paganakomin Mikan Street, P.O. Box 309",,Maniwaki,QC,J9E 3C9
La Nation Innu Matimekush-Lac John,87,QC,170 rue Pearce Lake,,Schefferville,QC,G0G 2T0
La Nation Micmac de Gespeg,53,QC,"34 Montee de Corte-Real, C.P. 69 Succ. Fontenelle",,Gaspe,QC,G4X 6V2
Les Atikamekw de Manawan,78,QC,135 Rue Kicik,,Manawan,QC,J0K 1M0
Les Innus de Ekuanitshit,82,QC,35 rue Manitou,,Ekuanitshit,QC,G0G 1V0
Listuguj Mi'gmaq Government,51,QC,"17 Riverside Street West,  P.O. Box 298",,Listuguj,QC,G0C 2R0
Long Point First Nation,67,QC,"112 Kakinwawigak Mikana, P.O. Box 1",,Winneway,QC,J0Z 2J0
Premiere nation de Whapmagoostui,95,QC,P.O. Box 390,,Whapmagoostui,QC,J0M 1G0
Premiere Nation des Abenakis de W�linak,71,QC,10120 Rue Kolipao,,W�linak,QC,G0X 1B0
Premiere Nation des Innus de Nutashkuan,83,QC,78 rue Mashkush,,Natashquan,QC,G0G 2E0
Premiere Nation des Pekuakamiulnuatsh,76,QC,1671 rue Ouiatchouan,,Mashteuiatsh,QC,G0W 2H0
Premi�re Nation Wolastoqiyik (Mal�cite) Wahsipekuk,54,QC,217 rue de la Greve,,Cacouna,QC,G0L 1G0
The Crees of the Waskaganish First Nation,61,QC,"70 Waskaganish Street, P.O. BOX 60",,Waskaganish,QC,J0M 1R0
Timiskaming First Nation,64,QC,24 Algonquin Avenue,,Notre-Dame-du-Nord,QC,J0Z 3B0
Waswanipi,56,QC,"1 Chief Louis R. Gull Street,  Diom Blacksmith Building,  P.O. Box 8",,Waswapini,QC,J0Y 3C0
Wolf Lake,68,QC,"Hunter's Point, P.O. Box 998",,Temiscaming,QC,J0Z 3R0
Ahtahkakoop,406,SK,PO BOX 220,,SHELL LAKE,SK,S0J 2G0
Beardy's and Okemasis,369,SK,PO BOX 340,,DUCK LAKE,SK,S0K 1J0
Big Island Lake Cree Nation,399,SK,PO BOX 309,,PIERCELAND,SK,S0M 2K0
Big River,404,SK,PO BOX 519,,DEBDEN,SK,S0J 0S0
Cowessess,361,SK,PO BOX 100,,COWESSESS,SK,S0G 5L0
Cumberland House Cree Nation,350,SK,PO BOX 220,,CUMBERLAND HOUSE,SK,S0E 0S0
Day Star,389,SK,PO BOX 277,,PUNNICHY,SK,S0A 3C0
English River First Nation,400,SK,GENERAL DELIVERY,,PATUANAK,SK,S0M 2H0
Fishing Lake First Nation,390,SK,PO BOX 508,,WADENA,SK,S0A 4J0
Flying Dust First Nation,395,SK,8001 FLYING DUST RESERVE,,MEADOW LAKE,SK,S9X 1T8
Fond du Lac,351,SK,PO BOX 211,,FOND DU LAC,SK,S0J 0W0
George Gordon First Nation,391,SK,PO BOX 248,,PUNNICHY,SK,S0A 3C0
Hatchet Lake,352,SK,GENERAL DELIVERY,,WOLLASTON LAKE,SK,S0J 3C0
James Smith,370,SK,PO BOX 1059,,MELFORT,SK,S0E 1A0
Kahkewistahaw,362,SK,PO BOX 609,,BROADVIEW,SK,S0G 0K0
Kawacatoose,393,SK,PO BOX 640,,RAYMORE,SK,S0A 3J0
Keeseekoose,367,SK,PO BOX 1120,,KAMSACK,SK,S0A 1S0
Kinistin Saulteaux Nation,377,SK,PO BOX 2590,,TISDALE,SK,S0E 1T0
Lac La Ronge,353,SK,PO BOX 480,,LA RONGE,SK,S0J 1L0
Little Black Bear,379,SK,PO BOX 40,,GOODEVE,SK,S0A 1C0
Mistawasis Nehiyawak,374,SK,PO BOX 250,,LEASK,SK,S0J 1M0
Montreal Lake,354,SK,PO BOX 106,,MONTREAL LAKE,SK,S0J 1Y0
Moosomin,342,SK,PO BOX 98,,COCHIN,SK,S0M 0L0
"Mosquito, Grizzly Bear's Head, Lean Man First Nations",343,SK,PO BOX 177,,CANDO,SK,S0K 0V0
Muscowpetung,381,SK,PO BOX 1310,,FORT QU'APPELLE,SK,S0G 1S0
Muskeg Lake Cree Nation #102,375,SK,PO BOX 248,,MARCELIN,SK,S0J 1R0
Muskoday First Nation,371,SK,PO BOX 99,,MUSKODAY,SK,S0J 3H0
Muskowekwan,392,SK,PO BOX 249,,LESTOCK,SK,S0A 2G0
Nekaneet,380,SK,PO BOX 548,,MAPLE CREEK,SK,S0N 1N0
Ocean Man,408,SK,PO BOX 157,,STOUGHTON,SK,S0G 4T0
Ochapowace,363,SK,PO BOX 550,,WHITEWOOD,SK,S0G 5C0
Okanese,382,SK,PO BOX 759,,BALCARRES,SK,S0G 0C0
One Arrow First Nation,373,SK,PO BOX 147,,BELLEVUE,SK,S0K 3Y0
Onion Lake Cree Nation,344,SK,PO BOX 100,,ONION LAKE,SK,S0M 2E0
Poundmaker,345,SK,PO BOX 610,,CUTKNIFE,SK,S0M 0N0
Red Earth,356,SK,PO BOX 109,,RED EARTH,SK,S0E 1K0
Red Pheasant,346,SK,PO BOX 70,,CANDO,SK,S0K 0V0
Saulteaux,347,SK,PO BOX 159,,COCHIN,SK,S0M 0L0
Shoal Lake Cree Nation,357,SK,PO BOX 51,,PAKWAW,SK,S0E 1G0
Standing Buffalo,386,SK,PO BOX 128,,FORT QU'APPELLE,SK,S0G 1S0
Star Blanket Cree Nation,387,SK,PO BOX 456,,BALCARRES,SK,S0G 0C0
Sturgeon Lake First Nation,360,SK,"RR 1 SITE 12, PO BOX 5",,SHELLBROOK,SK,S0J 2E0
Sweetgrass,348,SK,PO BOX 147,,GALLIVAN,SK,S0M 0X0
The Key First Nation,368,SK,PO BOX 70,,NORQUAY,SK,S0A 2V0
Thunderchild First Nation,349,SK,PO BOX 600,,TURTLEFORD,SK,S0M 2Y0
Wahpeton Dakota Nation,358,SK,PO BOX 128,,PRINCE ALBERT,SK,S6V 5R4
Waterhen Lake,402,SK,PO BOX 9,,WATERHEN LAKE,SK,S0M 3B0
White Bear,365,SK,PO BOX 700,,CARLYLE,SK,S0C 0R0
Whitecap Dakota First Nation,372,SK,182 CHIEF WHITECAP TRAIL,,WHITECAP,SK,S7K 2L2
Witchekan Lake,407,SK,PO BOX 879,,SPIRITWOOD,SK,S0J 2M0
Wood Mountain,388,SK,PO BOX 1792,,ASSINIBOIA,SK,S0H 0B0
Yellow Quill,376,SK,PO BOX 40,,YELLOW QUILL,SK,S0A 3A0
Carcross/Tagish First Nation,491,YT,PO BOX 130,,CARCROSS,YT,Y0B 1B0
Champagne,493,YT,,,,,
Champagne and Aishihik First Nations,507,YT,PO BOX 5310,,HAINES JUNCTION,YT,Y0B 1L0
Dease River,504,YT,PO BOX 79,,GOOD HOPE LAKE,BC,V0C 2Z0
First Nation of Nacho Nyak Dun,495,YT,PO BOX 220,,MAYO,YT,Y0B 1M0
Kluane First Nation,503,YT,PO BOX 20,,BURWASH LANDING,YT,Y0B 1V0
Kwanlin Dun First Nation,500,YT,35 McINTYRE STREET,,WHITEHORSE,YT,Y1A 5S5
Liard First Nation,502,YT,PO BOX 328,,WATSON LAKE,YT,Y0A 1C0
Little Salmon/Carmacks First Nation,492,YT,PO BOX 135,,CARMACKS,YT,Y0B 1C0
Ross River,497,YT,GENERAL DELIVERY,,ROSS RIVER,YT,Y0B 1S0
Selkirk First Nation,498,YT,PO BOX 40,,PELLY CROSSING,YT,Y0B 1P0
Ta'an Kwach'an,508,YT,117 INDUSTRIAL ROAD,,WHITEHORSE,YT,Y1A 2T8
Taku River Tlingit,501,YT,PO BOX 132,,ATLIN,BC,V0W 1A0
Teslin Tlingit Council,499,YT,PO BOX 133,,TESLIN,YT,Y0A 1B0
Tr�ondek Hwech�in,494,YT,PO BOX 599,,DAWSON CITY,YT,Y0B 1G0
Vuntut Gwitchin First Nation,496,YT,PO BOX 94,,OLD CROW,YT,Y0B 1N0
White River First Nation,506,YT,PO BOX 2,,BEAVER CREEK,YT,Y0B 1A0
,,,,,,,
